CCSDS_OMM_VERS = 2.0
CREATION_DATE  = 
ORIGINATOR     = 

OBJECT_NAME    = UNKNOWN
OBJECT_ID      = 
CENTER_NAME    = EARTH
REF_FRAME      = TEME
TIME_SYSTEM    = UTC
MEAN_ELEMENT_THEORY = SGP/SGP4

EPOCH          = 2026-01-21T05:02:39.501888
MEAN_MOTION    = 13.78904867
ECCENTRICITY   = .0119894
INCLINATION    = 66.8013
RA_OF_ASC_NODE = 317.5214
ARG_OF_PERICENTER = 298.0230
MEAN_ANOMALY   = 60.8756

EPHEMERIS_TYPE = 0
CLASSIFICATION_TYPE = U
NORAD_CAT_ID   = 81359
ELEMENT_SET_NO = 999
REV_AT_EPOCH   = 61092
BSTAR          = .10182E-2
MEAN_MOTION_DOT = .1021E-4
MEAN_MOTION_DDOT = 0

CCSDS_OMM_VERS = 2.0
CREATION_DATE  = 
ORIGINATOR     = 

OBJECT_NAME    = UNKNOWN
OBJECT_ID      = 
CENTER_NAME    = EARTH
REF_FRAME      = TEME
TIME_SYSTEM    = UTC
MEAN_ELEMENT_THEORY = SGP/SGP4

EPOCH          = 2026-01-23T13:42:24.713568
MEAN_MOTION    = 13.45240902
ECCENTRICITY   = .0710553
INCLINATION    = 65.8851
RA_OF_ASC_NODE = 333.0189
ARG_OF_PERICENTER = 61.2235
MEAN_ANOMALY   = 305.8290

EPHEMERIS_TYPE = 0
CLASSIFICATION_TYPE = U
NORAD_CAT_ID   = 81366
ELEMENT_SET_NO = 999
REV_AT_EPOCH   = 7158
BSTAR          = .10155E-2
MEAN_MOTION_DOT = .2808E-4
MEAN_MOTION_DDOT = 0

CCSDS_OMM_VERS = 2.0
CREATION_DATE  = 
ORIGINATOR     = 

OBJECT_NAME    = UNKNOWN
OBJECT_ID      = 
CENTER_NAME    = EARTH
REF_FRAME      = TEME
TIME_SYSTEM    = UTC
MEAN_ELEMENT_THEORY = SGP/SGP4

EPOCH          = 2026-01-19T12:58:59.102112
MEAN_MOTION    = 14.70593876
ECCENTRICITY   = .0069399
INCLINATION    = 98.8124
RA_OF_ASC_NODE = 124.0055
ARG_OF_PERICENTER = 246.4516
MEAN_ANOMALY   = 112.9387

EPHEMERIS_TYPE = 0
CLASSIFICATION_TYPE = U
NORAD_CAT_ID   = 81371
ELEMENT_SET_NO = 999
REV_AT_EPOCH   = 64739
BSTAR          = .77196E-3
MEAN_MOTION_DOT = .4811E-4
MEAN_MOTION_DDOT = 0

CCSDS_OMM_VERS = 2.0
CREATION_DATE  = 
ORIGINATOR     = 

OBJECT_NAME    = UNKNOWN
OBJECT_ID      = 
CENTER_NAME    = EARTH
REF_FRAME      = TEME
TIME_SYSTEM    = UTC
MEAN_ELEMENT_THEORY = SGP/SGP4

EPOCH          = 2026-01-24T09:18:46.560960
MEAN_MOTION    = 14.36837646
ECCENTRICITY   = .0086265
INCLINATION    = 71.0463
RA_OF_ASC_NODE = 263.9787
ARG_OF_PERICENTER = 16.6445
MEAN_ANOMALY   = 343.7489

EPHEMERIS_TYPE = 0
CLASSIFICATION_TYPE = U
NORAD_CAT_ID   = 81386
ELEMENT_SET_NO = 999
REV_AT_EPOCH   = 63036
BSTAR          = .26389E-2
MEAN_MOTION_DOT = .8101E-4
MEAN_MOTION_DDOT = 0

CCSDS_OMM_VERS = 2.0
CREATION_DATE  = 
ORIGINATOR     = 

OBJECT_NAME    = UNKNOWN
OBJECT_ID      = 
CENTER_NAME    = EARTH
REF_FRAME      = TEME
TIME_SYSTEM    = UTC
MEAN_ELEMENT_THEORY = SGP/SGP4

EPOCH          = 2026-01-18T23:31:23.659680
MEAN_MOTION    = 12.35626022
ECCENTRICITY   = .0169605
INCLINATION    = 103.1077
RA_OF_ASC_NODE = 275.1799
ARG_OF_PERICENTER = 77.6089
MEAN_ANOMALY   = 284.3892

EPHEMERIS_TYPE = 0
CLASSIFICATION_TYPE = U
NORAD_CAT_ID   = 81390
ELEMENT_SET_NO = 999
REV_AT_EPOCH   = 50469
BSTAR          = -.1921E-3
MEAN_MOTION_DOT = -.75E-6
MEAN_MOTION_DDOT = 0

CCSDS_OMM_VERS = 2.0
CREATION_DATE  = 
ORIGINATOR     = 

OBJECT_NAME    = UNKNOWN
OBJECT_ID      = 
CENTER_NAME    = EARTH
REF_FRAME      = TEME
TIME_SYSTEM    = UTC
MEAN_ELEMENT_THEORY = SGP/SGP4

EPOCH          = 2026-01-27T05:46:03.258336
MEAN_MOTION    = 13.82040403
ECCENTRICITY   = .0041455
INCLINATION    = 100.4023
RA_OF_ASC_NODE = 25.0693
ARG_OF_PERICENTER = 279.1497
MEAN_ANOMALY   = 148.4912

EPHEMERIS_TYPE = 0
CLASSIFICATION_TYPE = U
NORAD_CAT_ID   = 81392
ELEMENT_SET_NO = 999
REV_AT_EPOCH   = 60846
BSTAR          = .44699E-2
MEAN_MOTION_DOT = .4787E-4
MEAN_MOTION_DDOT = 0

CCSDS_OMM_VERS = 2.0
CREATION_DATE  = 
ORIGINATOR     = 

OBJECT_NAME    = UNKNOWN
OBJECT_ID      = 
CENTER_NAME    = EARTH
REF_FRAME      = TEME
TIME_SYSTEM    = UTC
MEAN_ELEMENT_THEORY = SGP/SGP4

EPOCH          = 2026-01-03T09:08:44.571552
MEAN_MOTION    = 13.88959115
ECCENTRICITY   = .016119
INCLINATION    = 99.4680
RA_OF_ASC_NODE = 56.9006
ARG_OF_PERICENTER = 166.1515
MEAN_ANOMALY   = 194.4141

EPHEMERIS_TYPE = 0
CLASSIFICATION_TYPE = U
NORAD_CAT_ID   = 81405
ELEMENT_SET_NO = 999
REV_AT_EPOCH   = 56480
BSTAR          = .20508E-2
MEAN_MOTION_DOT = .271E-4
MEAN_MOTION_DDOT = 0

CCSDS_OMM_VERS = 2.0
CREATION_DATE  = 
ORIGINATOR     = 

OBJECT_NAME    = UNKNOWN
OBJECT_ID      = 
CENTER_NAME    = EARTH
REF_FRAME      = TEME
TIME_SYSTEM    = UTC
MEAN_ELEMENT_THEORY = SGP/SGP4

EPOCH          = 2026-01-19T02:54:56.202048
MEAN_MOTION    = 14.07016817
ECCENTRICITY   = .0083933
INCLINATION    = 98.7483
RA_OF_ASC_NODE = 265.0501
ARG_OF_PERICENTER = 293.7541
MEAN_ANOMALY   = 65.4841

EPHEMERIS_TYPE = 0
CLASSIFICATION_TYPE = U
NORAD_CAT_ID   = 81427
ELEMENT_SET_NO = 999
REV_AT_EPOCH   = 55702
BSTAR          = .36083E-3
MEAN_MOTION_DOT = .579E-5
MEAN_MOTION_DDOT = 0

CCSDS_OMM_VERS = 2.0
CREATION_DATE  = 
ORIGINATOR     = 

OBJECT_NAME    = UNKNOWN
OBJECT_ID      = 
CENTER_NAME    = EARTH
REF_FRAME      = TEME
TIME_SYSTEM    = UTC
MEAN_ELEMENT_THEORY = SGP/SGP4

EPOCH          = 2026-01-27T09:16:40.476576
MEAN_MOTION    = 13.54999020
ECCENTRICITY   = .0057821
INCLINATION    = 100.3171
RA_OF_ASC_NODE = 266.0585
ARG_OF_PERICENTER = 324.2738
MEAN_ANOMALY   = 35.4534

EPHEMERIS_TYPE = 0
CLASSIFICATION_TYPE = U
NORAD_CAT_ID   = 81438
ELEMENT_SET_NO = 999
REV_AT_EPOCH   = 59812
BSTAR          = .59462E-2
MEAN_MOTION_DOT = .4092E-4
MEAN_MOTION_DDOT = 0

CCSDS_OMM_VERS = 2.0
CREATION_DATE  = 
ORIGINATOR     = 

OBJECT_NAME    = UNKNOWN
OBJECT_ID      = 
CENTER_NAME    = EARTH
REF_FRAME      = TEME
TIME_SYSTEM    = UTC
MEAN_ELEMENT_THEORY = SGP/SGP4

EPOCH          = 2026-01-26T19:09:18.183168
MEAN_MOTION    = 12.62640204
ECCENTRICITY   = .0599219
INCLINATION    = 67.1597
RA_OF_ASC_NODE = 54.6677
ARG_OF_PERICENTER = 175.7436
MEAN_ANOMALY   = 184.9017

EPHEMERIS_TYPE = 0
CLASSIFICATION_TYPE = U
NORAD_CAT_ID   = 81439
ELEMENT_SET_NO = 999
REV_AT_EPOCH   = 26758
BSTAR          = .27218E-3
MEAN_MOTION_DOT = .46E-6
MEAN_MOTION_DDOT = 0

CCSDS_OMM_VERS = 2.0
CREATION_DATE  = 
ORIGINATOR     = 

OBJECT_NAME    = UNKNOWN
OBJECT_ID      = 
CENTER_NAME    = EARTH
REF_FRAME      = TEME
TIME_SYSTEM    = UTC
MEAN_ELEMENT_THEORY = SGP/SGP4

EPOCH          = 2026-01-26T05:40:22.987488
MEAN_MOTION    = 15.07755445
ECCENTRICITY   = .0019474
INCLINATION    = 66.7908
RA_OF_ASC_NODE = 221.4852
ARG_OF_PERICENTER = 80.2466
MEAN_ANOMALY   = 280.0870

EPHEMERIS_TYPE = 0
CLASSIFICATION_TYPE = U
NORAD_CAT_ID   = 81449
ELEMENT_SET_NO = 999
REV_AT_EPOCH   = 64024
BSTAR          = .73836E-2
MEAN_MOTION_DOT = .115395E-2
MEAN_MOTION_DDOT = 0

CCSDS_OMM_VERS = 2.0
CREATION_DATE  = 
ORIGINATOR     = 

OBJECT_NAME    = UNKNOWN
OBJECT_ID      = 
CENTER_NAME    = EARTH
REF_FRAME      = TEME
TIME_SYSTEM    = UTC
MEAN_ELEMENT_THEORY = SGP/SGP4

EPOCH          = 2026-01-21T01:04:08.776992
MEAN_MOTION    = 14.28675103
ECCENTRICITY   = .014402
INCLINATION    = 98.9524
RA_OF_ASC_NODE = 298.9631
ARG_OF_PERICENTER = 244.5560
MEAN_ANOMALY   = 127.5097

EPHEMERIS_TYPE = 0
CLASSIFICATION_TYPE = U
NORAD_CAT_ID   = 81478
ELEMENT_SET_NO = 999
REV_AT_EPOCH   = 62855
BSTAR          = .35174E-2
MEAN_MOTION_DOT = .9847E-4
MEAN_MOTION_DDOT = 0

CCSDS_OMM_VERS = 2.0
CREATION_DATE  = 
ORIGINATOR     = 

OBJECT_NAME    = UNKNOWN
OBJECT_ID      = 
CENTER_NAME    = EARTH
REF_FRAME      = TEME
TIME_SYSTEM    = UTC
MEAN_ELEMENT_THEORY = SGP/SGP4

EPOCH          = 2026-01-27T14:53:14.473824
MEAN_MOTION    = 13.56535624
ECCENTRICITY   = .0043861
INCLINATION    = 99.9979
RA_OF_ASC_NODE = 265.9599
ARG_OF_PERICENTER = 246.0361
MEAN_ANOMALY   = 141.9618

EPHEMERIS_TYPE = 0
CLASSIFICATION_TYPE = U
NORAD_CAT_ID   = 81488
ELEMENT_SET_NO = 999
REV_AT_EPOCH   = 60285
BSTAR          = .26649E-3
MEAN_MOTION_DOT = .142E-5
MEAN_MOTION_DDOT = 0

CCSDS_OMM_VERS = 2.0
CREATION_DATE  = 
ORIGINATOR     = 

OBJECT_NAME    = UNKNOWN
OBJECT_ID      = 
CENTER_NAME    = EARTH
REF_FRAME      = TEME
TIME_SYSTEM    = UTC
MEAN_ELEMENT_THEORY = SGP/SGP4

EPOCH          = 2026-01-22T23:06:41.141952
MEAN_MOTION    = 13.84516466
ECCENTRICITY   = .0027916
INCLINATION    = 100.3027
RA_OF_ASC_NODE = 286.5661
ARG_OF_PERICENTER = 272.2037
MEAN_ANOMALY   = 103.5400

EPHEMERIS_TYPE = 0
CLASSIFICATION_TYPE = U
NORAD_CAT_ID   = 81497
ELEMENT_SET_NO = 999
REV_AT_EPOCH   = 22200
BSTAR          = .4455E-2
MEAN_MOTION_DOT = .4963E-4
MEAN_MOTION_DDOT = 0

CCSDS_OMM_VERS = 2.0
CREATION_DATE  = 
ORIGINATOR     = 

OBJECT_NAME    = UNKNOWN
OBJECT_ID      = 
CENTER_NAME    = EARTH
REF_FRAME      = TEME
TIME_SYSTEM    = UTC
MEAN_ELEMENT_THEORY = SGP/SGP4

EPOCH          = 2026-01-26T16:54:40.217760
MEAN_MOTION    = 14.47438184
ECCENTRICITY   = .0002618
INCLINATION    = 74.0491
RA_OF_ASC_NODE = 137.0720
ARG_OF_PERICENTER = 271.1593
MEAN_ANOMALY   = 88.9266

EPHEMERIS_TYPE = 0
CLASSIFICATION_TYPE = U
NORAD_CAT_ID   = 81499
ELEMENT_SET_NO = 999
REV_AT_EPOCH   = 48892
BSTAR          = .131E-2
MEAN_MOTION_DOT = .4785E-4
MEAN_MOTION_DDOT = 0

CCSDS_OMM_VERS = 2.0
CREATION_DATE  = 
ORIGINATOR     = 

OBJECT_NAME    = UNKNOWN
OBJECT_ID      = 
CENTER_NAME    = EARTH
REF_FRAME      = TEME
TIME_SYSTEM    = UTC
MEAN_ELEMENT_THEORY = SGP/SGP4

EPOCH          = 2026-01-27T00:32:15.410976
MEAN_MOTION    = 14.13559089
ECCENTRICITY   = .0234743
INCLINATION    = 98.1968
RA_OF_ASC_NODE = 110.5340
ARG_OF_PERICENTER = 17.9416
MEAN_ANOMALY   = 342.9871

EPHEMERIS_TYPE = 0
CLASSIFICATION_TYPE = U
NORAD_CAT_ID   = 81535
ELEMENT_SET_NO = 999
REV_AT_EPOCH   = 39379
BSTAR          = .54623E-3
MEAN_MOTION_DOT = .1298E-4
MEAN_MOTION_DDOT = 0

